{"type": "FeatureCollection", "features": [ {"type": "Feature", "properties": {"norad_id": 30742, "name": "FENGYUN 1C DEB", "group": "fengyun-1c-debris", "lat": -67.05168411280616, "lon": -163.8451088932235, "alt_km": 825.8227224385346, "timestamp": "2025-12-19T10:50:01.479556+00:00", "meta": {"OBJECT_NAME": "FENGYUN 1C DEB", "OBJECT_ID": "1999-025ATC", "EPOCH": "2025-12-18T15:41:42.640800", "MEAN_MOTION": 14.10399297, "ECCENTRICITY": 0.00714449, "INCLINATION": 98.8678, "RA_OF_ASC_NODE": 37.005, "ARG_OF_PERICENTER": 210.2976, "MEAN_ANOMALY": 311.1673, "EPHEMERIS_TYPE": 0, "CLASSIFICATION_TYPE": "U", "NORAD_CAT_ID": 30742, "ELEMENT_SET_NO": 999, "REV_AT_EPOCH": 96125, "BSTAR": 0.0012718408, "MEAN_MOTION_DOT": 2.271e-05, "MEAN_MOTION_DDOT": 0}, "tle": {"line1": "1 30742U 99025ATC 25352.65396575  .00002271  00000+0  12718-2 0  9996", "line2": "2 30742  98.8678  37.0050 0071444 210.2976 311.1673 14.10399297961256"}}, "geometry": {"type": "Point", "coordinates": [-163.8451088932235, -67.05168411280616]}}, {"type": "Feature", "properties": {"norad_id": 30744, "name": "FENGYUN 1C DEB", "group": "fengyun-1c-debris", "lat": 47.09980929922073, "lon": -30.2256609743446, "alt_km": 597.9013407206294, "timestamp": "2025-12-19T10:50:01.479566+00:00", "meta": {"OBJECT_NAME": "FENGYUN 1C DEB", "OBJECT_ID": "1999-025ATE", "EPOCH": "2025-12-18T23:32:10.470336", "MEAN_MOTION": 14.90020987, "ECCENTRICITY": 0.00103418, "INCLINATION": 98.7308, "RA_OF_ASC_NODE": 139.7359, "ARG_OF_PERICENTER": 260.1535, "MEAN_ANOMALY": 228.4999, "EPHEMERIS_TYPE": 0, "CLASSIFICATION_TYPE": "U", "NORAD_CAT_ID": 30744, "ELEMENT_SET_NO": 999, "REV_AT_EPOCH": 98181, "BSTAR": 0.0034761765, "MEAN_MOTION_DOT": 0.00033657, "MEAN_MOTION_DDOT": 0}, "tle": {"line1": "1 30744U 99025ATE 25352.98067674  .00033657  00000+0  34762-2 0  9994", "line2": "2 30744  98.7308 139.7359 0010341 260.1535 228.4999 14.90020987981813"}}, "geometry": {"type": "Point", "coordinates": [-30.2256609743446, 47.09980929922073]}}, {"type": "Feature", "properties": {"norad_id": 30746, "name": "FENGYUN 1C DEB", "group": "fengyun-1c-debris", "lat": -78.44037447990831, "lon": -134.46437589522702, "alt_km": 776.5097876788068, "timestamp": "2025-12-19T10:50:01.479576+00:00", "meta": {"OBJECT_NAME": "FENGYUN 1C DEB", "OBJECT_ID": "1999-025ATG", "EPOCH": "2025-12-18T11:47:37.530240", "MEAN_MOTION": 14.27527971, "ECCENTRICITY": 0.00460861, "INCLINATION": 99.0573, "RA_OF_ASC_NODE": 173.2925, "ARG_OF_PERICENTER": 301.5339, "MEAN_ANOMALY": 85.1151, "EPHEMERIS_TYPE": 0, "CLASSIFICATION_TYPE": "U", "NORAD_CAT_ID": 30746, "ELEMENT_SET_NO": 999, "REV_AT_EPOCH": 97528, "BSTAR": 0.0003758442, "MEAN_MOTION_DOT": 8.86e-06, "MEAN_MOTION_DDOT": 0}, "tle": {"line1": "1 30746U 99025ATG 25352.49140660  .00000886  00000+0  37584-3 0  9993", "line2": "2 30746  99.0573 173.2925 0046086 301.5339  85.1151 14.27527971975289"}}, "geometry": {"type": "Point", "coordinates": [-134.46437589522702, -78.44037447990831]}}, {"type": "Feature", "properties": {"norad_id": 30749, "name": "FENGYUN 1C DEB", "group": "fengyun-1c-debris", "lat": -32.498321665381155, "lon": 25.78327898620546, "alt_km": 916.3240110143925, "timestamp": "2025-12-19T10:50:01.479587+00:00", "meta": {"OBJECT_NAME": "FENGYUN 1C DEB", "OBJECT_ID": "1999-025ATK", "EPOCH": "2025-12-18T12:41:28.446144", "MEAN_MOTION": 13.99838679, "ECCENTRICITY": 0.0055852, "INCLINATION": 98.8866, "RA_OF_ASC_NODE": 19.1675, "ARG_OF_PERICENTER": 216.3178, "MEAN_ANOMALY": 143.4191, "EPHEMERIS_TYPE": 0, "CLASSIFICATION_TYPE": "U", "NORAD_CAT_ID": 30749, "ELEMENT_SET_NO": 999, "REV_AT_EPOCH": 96047, "BSTAR": 1.5642439e-05, "MEAN_MOTION_DOT": -2e-07, "MEAN_MOTION_DDOT": 0}, "tle": {"line1": "1 30749U 99025ATK 25352.52880146 -.00000020  00000+0  15642-4 0  9993", "line2": "2 30749  98.8866  19.1675 0055852 216.3178 143.4191 13.99838679960474"}}, "geometry": {"type": "Point", "coordinates": [25.78327898620546, -32.498321665381155]}}, {"type": "Feature", "properties": {"norad_id": 30750, "name": "FENGYUN 1C DEB", "group": "fengyun-1c-debris", "lat": -29.345212110340764, "lon": -116.91809584099741, "alt_km": 820.0877707739683, "timestamp": "2025-12-19T10:50:01.479596+00:00", "meta": {"OBJECT_NAME": "FENGYUN 1C DEB", "OBJECT_ID": "1999-025ATL", "EPOCH": "2025-12-18T03:54:52.610688", "MEAN_MOTION": 14.28650283, "ECCENTRICITY": 0.00401041, "INCLINATION": 98.9197, "RA_OF_ASC_NODE": 66.8308, "ARG_OF_PERICENTER": 84.4204, "MEAN_ANOMALY": 342.6811, "EPHEMERIS_TYPE": 0, "CLASSIFICATION_TYPE": "U", "NORAD_CAT_ID": 30750, "ELEMENT_SET_NO": 999, "REV_AT_EPOCH": 96859, "BSTAR": 0.0013544423, "MEAN_MOTION_DOT": 3.388e-05, "MEAN_MOTION_DDOT": 0}, "tle": {"line1": "1 30750U 99025ATL 25352.16310892  .00003388  00000+0  13544-2 0  9997", "line2": "2 30750  98.9197  66.8308 0040104  84.4204 342.6811 14.28650283968593"}}, "geometry": {"type": "Point", "coordinates": [-116.91809584099741, -29.345212110340764]}}, {"type": "Feature", "properties": {"norad_id": 30751, "name": "FENGYUN 1C DEB", "group": "fengyun-1c-debris", "lat": -22.220168242222986, "lon": 56.25622772341116, "alt_km": 853.0565750486994, "timestamp": "2025-12-19T10:50:01.479608+00:00", "meta": {"OBJECT_NAME": "FENGYUN 1C DEB", "OBJECT_ID": "1999-025ATM", "EPOCH": "2025-12-18T16:49:53.077728", "MEAN_MOTION": 14.15233041, "ECCENTRICITY": 0.00518185, "INCLINATION": 98.8549, "RA_OF_ASC_NODE": 51.8606, "ARG_OF_PERICENTER": 79.6527, "MEAN_ANOMALY": 39.0474, "EPHEMERIS_TYPE": 0, "CLASSIFICATION_TYPE": "U", "NORAD_CAT_ID": 30751, "ELEMENT_SET_NO": 999, "REV_AT_EPOCH": 96360, "BSTAR": 0.0011580512, "MEAN_MOTION_DOT": 2.237e-05, "MEAN_MOTION_DDOT": 0}, "tle": {"line1": "1 30751U 99025ATM 25352.70130877  .00002237  00000+0  11581-2 0  9992", "line2": "2 30751  98.8549  51.8606 0051818  79.6527  39.0474 14.15233041963601"}}, "geometry": {"type": "Point", "coordinates": [56.25622772341116, -22.220168242222986]}}, {"type": "Feature", "properties": {"norad_id": 30753, "name": "FENGYUN 1C DEB", "group": "fengyun-1c-debris", "lat": 75.1878300724342, "lon": -3.9611559835285806, "alt_km": 851.3708367967274, "timestamp": "2025-12-19T10:50:01.479621+00:00", "meta": {"OBJECT_NAME": "FENGYUN 1C DEB", "OBJECT_ID": "1999-025ATP", "EPOCH": "2025-12-18T19:10:07.429440", "MEAN_MOTION": 14.12669845, "ECCENTRICITY": 0.00551918, "INCLINATION": 98.8068, "RA_OF_ASC_NODE": 31.2887, "ARG_OF_PERICENTER": 337.6016, "MEAN_ANOMALY": 22.2747, "EPHEMERIS_TYPE": 0, "CLASSIFICATION_TYPE": "U", "NORAD_CAT_ID": 30753, "ELEMENT_SET_NO": 999, "REV_AT_EPOCH": 96437, "BSTAR": 0.00087426088, "MEAN_MOTION_DOT": 1.6e-05, "MEAN_MOTION_DDOT": 0}, "tle": {"line1": "1 30753U 99025ATP 25352.79869710  .00001600  00000+0  87426-3 0  9993", "line2": "2 30753  98.8068  31.2887 0055191 337.6016  22.2747 14.12669845964374"}}, "geometry": {"type": "Point", "coordinates": [-3.9611559835285806, 75.1878300724342]}}, {"type": "Feature", "properties": {"norad_id": 30755, "name": "FENGYUN 1C DEB", "group": "fengyun-1c-debris", "lat": -75.80959952509006, "lon": 132.77814407754082, "alt_km": 643.5404008521537, "timestamp": "2025-12-19T10:50:01.479631+00:00", "meta": {"OBJECT_NAME": "FENGYUN 1C DEB", "OBJECT_ID": "1999-025ATR", "EPOCH": "2025-12-18T11:05:25.444320", "MEAN_MOTION": 14.44979682, "ECCENTRICITY": 0.01508, "INCLINATION": 98.258, "RA_OF_ASC_NODE": 346.8701, "ARG_OF_PERICENTER": 251.5668, "MEAN_ANOMALY": 263.2421, "EPHEMERIS_TYPE": 0, "CLASSIFICATION_TYPE": "U", "NORAD_CAT_ID": 30755, "ELEMENT_SET_NO": 999, "REV_AT_EPOCH": 98527, "BSTAR": 0.0004596202, "MEAN_MOTION_DOT": 1.793e-05, "MEAN_MOTION_DDOT": 0}, "tle": {"line1": "1 30755U 99025ATR 25352.46210005  .00001793  00000+0  45962-3 0  9998", "line2": "2 30755  98.2580 346.8701 0150800 251.5668 263.2421 14.44979682985275"}}, "geometry": {"type": "Point", "coordinates": [132.77814407754082, -75.80959952509006]}}, {"type": "Feature", "properties": {"norad_id": 30756, "name": "FENGYUN 1C DEB", "group": "fengyun-1c-debris", "lat": -51.93367304089593, "lon": 72.60943034753721, "alt_km": 787.2673401661177, "timestamp": "2025-12-19T10:50:01.479641+00:00", "meta": {"OBJECT_NAME": "FENGYUN 1C DEB", "OBJECT_ID": "1999-025ATS", "EPOCH": "2025-12-18T15:30:37.720224", "MEAN_MOTION": 14.1831, "ECCENTRICITY": 0.00714884, "INCLINATION": 98.9912, "RA_OF_ASC_NODE": 60.1302, "ARG_OF_PERICENTER": 299.0379, "MEAN_ANOMALY": 219.3668, "EPHEMERIS_TYPE": 0, "CLASSIFICATION_TYPE": "U", "NORAD_CAT_ID": 30756, "ELEMENT_SET_NO": 999, "REV_AT_EPOCH": 96488, "BSTAR": 0.0011811282, "MEAN_MOTION_DOT": 2.449e-05, "MEAN_MOTION_DDOT": 0}, "tle": {"line1": "1 30756U 99025ATS 25352.64626991  .00002449  00000+0  11811-2 0  9998", "line2": "2 30756  98.9912  60.1302 0071488 299.0379 219.3668 14.18310000964888"}}, "geometry": {"type": "Point", "coordinates": [72.60943034753721, -51.93367304089593]}}, {"type": "Feature", "properties": {"norad_id": 30758, "name": "FENGYUN 1C DEB", "group": "fengyun-1c-debris", "lat": -47.72381076006928, "lon": 122.30107712516629, "alt_km": 818.3331737367425, "timestamp": "2025-12-19T10:50:01.479651+00:00", "meta": {"OBJECT_NAME": "FENGYUN 1C DEB", "OBJECT_ID": "1999-025ATU", "EPOCH": "2025-12-18T01:25:53.327136", "MEAN_MOTION": 14.17131159, "ECCENTRICITY": 0.00384032, "INCLINATION": 99.0185, "RA_OF_ASC_NODE": 110.8298, "ARG_OF_PERICENTER": 347.6484, "MEAN_ANOMALY": 67.7822, "EPHEMERIS_TYPE": 0, "CLASSIFICATION_TYPE": "U", "NORAD_CAT_ID": 30758, "ELEMENT_SET_NO": 999, "REV_AT_EPOCH": 96566, "BSTAR": 0.0008333481, "MEAN_MOTION_DOT": 1.645e-05, "MEAN_MOTION_DDOT": 0}, "tle": {"line1": "1 30758U 99025ATU 25352.05964499  .00001645  00000+0  83335-3 0  9991", "line2": "2 30758  99.0185 110.8298 0038403 347.6484  67.7822 14.17131159965667"}}, "geometry": {"type": "Point", "coordinates": [122.30107712516629, -47.72381076006928]}}]}